start=new Date('2022-04-23T00:00:00.000Z').valueOf();
sats=[{"SITE":"AFWTR","OBJECT_TYPE":"PAYLOAD","EPHEMERIS_TYPE":"0","ARG_OF_PERICENTER":"40.5174","LAUNCH_DATE":"2021-12-18","COUNTRY_CODE":"US","MEAN_MOTION_DDOT":"0.0000000000000","EPOCH":"2022-04-22T22:00:00.999936","ECCENTRICITY":"0.00021170","TIME_SYSTEM":"UTC","SEMIMAJOR_AXIS":"6917.942","MEAN_ANOMALY":"323.8203","REV_AT_EPOCH":"2222","ELEMENT_SET_NO":"999","DECAY_DATE":null,"CENTER_NAME":"EARTH","OBJECT_ID":"2021-125Y","MEAN_ELEMENT_THEORY":"SGP4","RA_OF_ASC_NODE":"129.2604","APOAPSIS":"541.271","MEAN_MOTION":"15.08819857","OBJECT_NAME":"STARLINK-3284","PERIOD":"95.439","TLE_LINE1":"1 50178U 21125Y   22112.91667824  .00041262  00000-0  25969-2 0  9991","RCS_SIZE":"LARGE","INCLINATION":"53.2143","PERIAPSIS":"538.342","MEAN_MOTION_DOT":"0.00041262","BSTAR":"0.00259690000000","CLASSIFICATION_TYPE":"U","TLE_LINE2":"2 50178  53.2143 129.2604 0002117  40.5174 323.8203 15.08819857 22228","GP_ID":"201834481","NORAD_CAT_ID":"50178","FILE":"3411769","REF_FRAME":"TEME"},{"PERIAPSIS":"538.141","MEAN_MOTION_DOT":"0.00006702","BSTAR":"0.00043895000000","CLASSIFICATION_TYPE":"U","FILE":"3411763","GP_ID":"201834456","TLE_LINE2":"2 50179  53.2178 129.2552 0002374  39.3878 144.9828 15.08827520 22233","NORAD_CAT_ID":"50179","REF_FRAME":"TEME","OBJECT_ID":"2021-125Z","RA_OF_ASC_NODE":"129.2552","MEAN_ELEMENT_THEORY":"SGP4","OBJECT_NAME":"STARLINK-3283","APOAPSIS":"541.426","MEAN_MOTION":"15.08827520","PERIOD":"95.438","TLE_LINE1":"1 50179U 21125Z   22112.91667824  .00006702  00000-0  43895-3 0  9991","INCLINATION":"53.2178","RCS_SIZE":"LARGE","EPOCH":"2022-04-22T22:00:00.999936","ECCENTRICITY":"0.00023740","SEMIMAJOR_AXIS":"6917.919","TIME_SYSTEM":"UTC","REV_AT_EPOCH":"2223","MEAN_ANOMALY":"144.9828","ELEMENT_SET_NO":"999","CENTER_NAME":"EARTH","DECAY_DATE":null,"ARG_OF_PERICENTER":"39.3878","OBJECT_TYPE":"PAYLOAD","SITE":"AFWTR","EPHEMERIS_TYPE":"0","COUNTRY_CODE":"US","MEAN_MOTION_DDOT":"0.0000000000000","LAUNCH_DATE":"2021-12-18"},{"EPOCH":"2022-04-22T22:00:00.999936","ECCENTRICITY":"0.00025010","SEMIMAJOR_AXIS":"6917.975","TIME_SYSTEM":"UTC","REV_AT_EPOCH":"1962","MEAN_ANOMALY":"236.9820","ELEMENT_SET_NO":"999","CENTER_NAME":"EARTH","DECAY_DATE":null,"ARG_OF_PERICENTER":"27.3717","SITE":"AFWTR","OBJECT_TYPE":"PAYLOAD","EPHEMERIS_TYPE":"0","COUNTRY_CODE":"US","MEAN_MOTION_DDOT":"0.0000000000000","LAUNCH_DATE":"2021-12-18","PERIAPSIS":"538.110","MEAN_MOTION_DOT":"0.00033149","BSTAR":"0.00209280000000","CLASSIFICATION_TYPE":"U","FILE":"3411763","TLE_LINE2":"2 50180  53.2185 129.2533 0002501  27.3717 236.9820 15.08808982 19627","GP_ID":"201834454","NORAD_CAT_ID":"50180","REF_FRAME":"TEME","OBJECT_ID":"2021-125AA","RA_OF_ASC_NODE":"129.2533","MEAN_ELEMENT_THEORY":"SGP4","OBJECT_NAME":"STARLINK-3265","APOAPSIS":"541.570","MEAN_MOTION":"15.08808982","PERIOD":"95.440","TLE_LINE1":"1 50180U 21125AA  22112.91667824  .00033149  00000-0  20928-2 0  9999","INCLINATION":"53.2185","RCS_SIZE":"LARGE"},{"LAUNCH_DATE":"2021-12-18","COUNTRY_CODE":"US","MEAN_MOTION_DDOT":"0.0000000000000","OBJECT_TYPE":"PAYLOAD","SITE":"AFWTR","EPHEMERIS_TYPE":"0","ARG_OF_PERICENTER":"37.2574","TIME_SYSTEM":"UTC","SEMIMAJOR_AXIS":"6917.916","MEAN_ANOMALY":"267.0751","REV_AT_EPOCH":"2223","ELEMENT_SET_NO":"999","DECAY_DATE":null,"CENTER_NAME":"EARTH","EPOCH":"2022-04-22T22:00:00.999936","ECCENTRICITY":"0.00023410","PERIOD":"95.438","TLE_LINE1":"1 50181U 21125AB  22112.91667824  .00011155  00000-0  71807-3 0  9996","INCLINATION":"53.2167","RCS_SIZE":"LARGE","OBJECT_ID":"2021-125AB","MEAN_ELEMENT_THEORY":"SGP4","RA_OF_ASC_NODE":"129.2473","MEAN_MOTION":"15.08828454","APOAPSIS":"541.400","OBJECT_NAME":"STARLINK-3285","CLASSIFICATION_TYPE":"U","TLE_LINE2":"2 50181  53.2167 129.2473 0002341  37.2574 267.0751 15.08828454 22239","NORAD_CAT_ID":"50181","GP_ID":"201834451","FILE":"3411763","REF_FRAME":"TEME","PERIAPSIS":"538.161","MEAN_MOTION_DOT":"0.00011155","BSTAR":"0.00071807000000"},{"BSTAR":"0.00329570000000","MEAN_MOTION_DOT":"0.00052521","PERIAPSIS":"538.167","REF_FRAME":"TEME","FILE":"3411763","NORAD_CAT_ID":"50182","TLE_LINE2":"2 50182  53.2166 129.2472 0002387  35.8457 308.4771 15.08816266 22232","GP_ID":"201834834","CLASSIFICATION_TYPE":"U","OBJECT_NAME":"STARLINK-3277","MEAN_MOTION":"15.08816266","APOAPSIS":"541.469","RA_OF_ASC_NODE":"129.2472","MEAN_ELEMENT_THEORY":"SGP4","OBJECT_ID":"2021-125AC","RCS_SIZE":"LARGE","INCLINATION":"53.2166","TLE_LINE1":"1 50182U 21125AC  22112.91667824  .00052521  00000-0  32957-2 0  9991","PERIOD":"95.439","ECCENTRICITY":"0.00023870","EPOCH":"2022-04-22T22:00:00.999936","CENTER_NAME":"EARTH","DECAY_DATE":null,"ELEMENT_SET_NO":"999","REV_AT_EPOCH":"2223","MEAN_ANOMALY":"308.4771","TIME_SYSTEM":"UTC","SEMIMAJOR_AXIS":"6917.953","ARG_OF_PERICENTER":"35.8457","SITE":"AFWTR","OBJECT_TYPE":"PAYLOAD","EPHEMERIS_TYPE":"0","MEAN_MOTION_DDOT":"0.0000000000000","COUNTRY_CODE":"US","LAUNCH_DATE":"2021-12-18"},{"CLASSIFICATION_TYPE":"U","REF_FRAME":"TEME","TLE_LINE2":"2 50183  53.2176 129.2504 0002498  29.0562 295.3125 15.08823497 19636","GP_ID":"201834833","NORAD_CAT_ID":"50183","FILE":"3411763","MEAN_MOTION_DOT":"0.00005482","PERIAPSIS":"538.068","BSTAR":"0.00036243000000","TLE_LINE1":"1 50183U 21125AD  22112.91667824  .00005482  00000-0  36243-3 0  9999","PERIOD":"95.439","INCLINATION":"53.2176","RCS_SIZE":"LARGE","OBJECT_ID":"2021-125AD","APOAPSIS":"541.524","MEAN_MOTION":"15.08823497","OBJECT_NAME":"STARLINK-3281","MEAN_ELEMENT_THEORY":"SGP4","RA_OF_ASC_NODE":"129.2504","MEAN_ANOMALY":"295.3125","REV_AT_EPOCH":"1963","SEMIMAJOR_AXIS":"6917.931","TIME_SYSTEM":"UTC","DECAY_DATE":null,"CENTER_NAME":"EARTH","ELEMENT_SET_NO":"999","EPOCH":"2022-04-22T22:00:00.999936","ECCENTRICITY":"0.00024980","LAUNCH_DATE":"2021-12-18","MEAN_MOTION_DDOT":"0.0000000000000","COUNTRY_CODE":"US","OBJECT_TYPE":"PAYLOAD","SITE":"AFWTR","EPHEMERIS_TYPE":"0","ARG_OF_PERICENTER":"29.0562"},{"ARG_OF_PERICENTER":"31.8414","SITE":"AFWTR","OBJECT_TYPE":"PAYLOAD","EPHEMERIS_TYPE":"0","COUNTRY_CODE":"US","MEAN_MOTION_DDOT":"0.0000000000000","LAUNCH_DATE":"2021-12-18","ECCENTRICITY":"0.00025890","EPOCH":"2022-04-22T16:00:00.999936","ELEMENT_SET_NO":"999","CENTER_NAME":"EARTH","DECAY_DATE":null,"TIME_SYSTEM":"UTC","SEMIMAJOR_AXIS":"6917.854","REV_AT_EPOCH":"2220","MEAN_ANOMALY":"333.7906","RA_OF_ASC_NODE":"130.3759","MEAN_ELEMENT_THEORY":"SGP4","OBJECT_NAME":"STARLINK-3279","APOAPSIS":"541.510","MEAN_MOTION":"15.08848634","OBJECT_ID":"2021-125AF","RCS_SIZE":"LARGE","INCLINATION":"53.2182","PERIOD":"95.437","TLE_LINE1":"1 50185U 21125AF  22112.66667824 -.00029221  00000-0 -18248-2 0  9996","BSTAR":"-0.00182480000000","PERIAPSIS":"537.928","MEAN_MOTION_DOT":"-0.00029221","FILE":"3411436","NORAD_CAT_ID":"50185","TLE_LINE2":"2 50185  53.2182 130.3759 0002589  31.8414 333.7906 15.08848634 22209","GP_ID":"201801757","REF_FRAME":"TEME","CLASSIFICATION_TYPE":"U"},{"REV_AT_EPOCH":"360","MEAN_ANOMALY":"170.6844","SEMIMAJOR_AXIS":"6917.838","TIME_SYSTEM":"UTC","CENTER_NAME":"EARTH","DECAY_DATE":null,"ELEMENT_SET_NO":"999","EPOCH":"2022-04-22T14:00:01.000224","ECCENTRICITY":"0.00026290","COUNTRY_CODE":"US","MEAN_MOTION_DDOT":"0.0000000000000","LAUNCH_DATE":"2021-12-18","ARG_OF_PERICENTER":"27.0407","EPHEMERIS_TYPE":"0","SITE":"AFWTR","OBJECT_TYPE":"PAYLOAD","CLASSIFICATION_TYPE":"U","REF_FRAME":"TEME","FILE":"3411458","TLE_LINE2":"2 50186  53.2151 140.7462 0002629  27.0407 170.6844 15.08853935  3608","NORAD_CAT_ID":"50186","GP_ID":"201825075","MEAN_MOTION_DOT":"-0.00013079","PERIAPSIS":"537.884","BSTAR":"-0.00080475000000","TLE_LINE1":"1 50186U 21125AG  22112.58334491 -.00013079  00000-0 -80475-3 0  9995","PERIOD":"95.437","INCLINATION":"53.2151","RCS_SIZE":"LARGE","OBJECT_ID":"2021-125AG","OBJECT_NAME":"STARLINK-3274","MEAN_MOTION":"15.08853935","APOAPSIS":"541.521","RA_OF_ASC_NODE":"140.7462","MEAN_ELEMENT_THEORY":"SGP4"},{"ECCENTRICITY":"0.00020820","EPOCH":"2022-04-22T16:00:00.999936","DECAY_DATE":null,"CENTER_NAME":"EARTH","ELEMENT_SET_NO":"999","MEAN_ANOMALY":"98.8845","REV_AT_EPOCH":"1972","SEMIMAJOR_AXIS":"6917.762","TIME_SYSTEM":"UTC","SITE":"AFWTR","OBJECT_TYPE":"PAYLOAD","EPHEMERIS_TYPE":"0","ARG_OF_PERICENTER":"41.7335","LAUNCH_DATE":"2021-12-18","MEAN_MOTION_DDOT":"0.0000000000000","COUNTRY_CODE":"US","BSTAR":"-0.00454590000000","MEAN_MOTION_DOT":"-0.00071992","PERIAPSIS":"538.187","REF_FRAME":"TEME","NORAD_CAT_ID":"50187","TLE_LINE2":"2 50187  53.2150 120.3834 0002082  41.7335  98.8845 15.08878764 19720","GP_ID":"201801318","FILE":"3411436","CLASSIFICATION_TYPE":"U","APOAPSIS":"541.067","MEAN_MOTION":"15.08878764","OBJECT_NAME":"STARLINK-3272","MEAN_ELEMENT_THEORY":"SGP4","RA_OF_ASC_NODE":"120.3834","OBJECT_ID":"2021-125AH","INCLINATION":"53.2150","RCS_SIZE":"LARGE","TLE_LINE1":"1 50187U 21125AH  22112.66667824 -.00071992  00000-0 -45459-2 0  9994","PERIOD":"95.435"},{"ELEMENT_SET_NO":"999","DECAY_DATE":null,"CENTER_NAME":"EARTH","SEMIMAJOR_AXIS":"6917.860","TIME_SYSTEM":"UTC","MEAN_ANOMALY":"81.2586","REV_AT_EPOCH":"1972","ECCENTRICITY":"0.00021330","EPOCH":"2022-04-22T16:00:00.999936","LAUNCH_DATE":"2021-12-18","MEAN_MOTION_DDOT":"0.0000000000000","COUNTRY_CODE":"US","SITE":"AFWTR","OBJECT_TYPE":"PAYLOAD","EPHEMERIS_TYPE":"0","ARG_OF_PERICENTER":"39.3817","GP_ID":"201801762","TLE_LINE2":"2 50188  53.2139 120.3824 0002133  39.3817  81.2586 15.08846623 19729","NORAD_CAT_ID":"50188","FILE":"3411436","REF_FRAME":"TEME","CLASSIFICATION_TYPE":"U","BSTAR":"-0.00179670000000","PERIAPSIS":"538.250","MEAN_MOTION_DOT":"-0.00028775","INCLINATION":"53.2139","RCS_SIZE":"LARGE","PERIOD":"95.437","TLE_LINE1":"1 50188U 21125AJ  22112.66667824 -.00028775  00000-0 -17967-2 0  9999","MEAN_ELEMENT_THEORY":"SGP4","RA_OF_ASC_NODE":"120.3824","MEAN_MOTION":"15.08846623","APOAPSIS":"541.201","OBJECT_NAME":"STARLINK-3275","OBJECT_ID":"2021-125AJ"}];
